              M50 Cartesian                         M50 Keplerian  
    -----------------------------------       --------------------------------
     X    =       -4694135.88                 A    =         6784029.56  meter
     Y    =       -3668460.03  meter          E    =           .0005593
     Z    =       -3252576.74                 I    =           51.30949
     XDOT =       1330.272157                 Wp   =          123.20837
     YDOT =      -5885.333274  meter/sec      RA   =          243.93589  deg
     ZDOT =       4720.892643                 TA   =          198.91747
                                              MA   =          198.93825
                                              Ha   =            221.033  n.mi
                                              Hp   =            214.055
 
              M50 Cartesian                         J2K Cartesian  
    -----------------------------------       --------------------------------
     X    =      -15400708.26                 X    =        -4636965.86
     Y    =      -12035630.02  feet           Y    =        -3720633.70  meter
     Z    =      -10671183.52                 Z    =        -3275240.23
     XDOT =       4364.409963                 XDOT =        1373.052630
     YDOT =     -19308.836201  feet/sec       YDOT =       -5870.217532  meter/sec
     ZDOT =      15488.492924                 ZDOT =        4727.459329
 
              TDR Cartesian                         TDR Cartesian  
    -----------------------------------       --------------------------------
     X    =      -11190361.18                 X    =        -3410822.09
     Y    =      -15959976.19  feet           Y    =        -4864600.74  meter
     Z    =      -10768813.28                 Z    =        -3282334.29
     XDOT =       8508.246679                 XDOT =        2593.313588
     YDOT =     -16429.768276  feet/sec       YDOT =       -5007.793370  meter/sec
     ZDOT =      15517.949767                 ZDOT =        4729.871089
  
  
    The mean element set is posted at the UTC for which position is
    just north of the next ascending node relative to the above
    vector time
 
 
    TWO LINE MEAN ELEMENT SET
  
    ISS
    1 25544U 98067A   16059.52417393  .00016717  00000-0  10270-3 0  9114
    2 25544  51.6378 244.8987 0003551 178.8841 181.2320 15.54380715 27921
  
  
    Satellite: ISS
    Catalog Number: 25544
    Epoch time:      16059.52417393   =   yrday.fracday
    Element set:     911
    Inclination:       51.6378  deg
    RA of node:       244.8987  deg
    Eccentricity:     .0003551     
    Arg of perigee:   178.8841  deg
    Mean anomaly:     181.2320  deg
    Mean motion:   15.54380715  rev/day
    Decay rate:    1.67170E-04  rev/day^2
    Epoch rev:            2792
    Checksum:              329
 
 
    Coasting Arc #13 (Orbit 2807)
    ---------------------------------------
 
    Vector Time (GMT): 2016/060/12:25:00.000
    Vector Time (MET): N/A
    Weight (LBS)     : 906643.5
 
              M50 Cartesian                         M50 Keplerian  
    -----------------------------------       --------------------------------
     X    =        4454933.49                 A    =         6787243.97  meter
     Y    =        4834853.56  meter          E    =           .0015416
     Z    =        1651254.62                 I    =           51.33571
     XDOT =      -2661.825625                 Wp   =          127.86321
     YDOT =       4405.486196  meter/sec      RA   =          238.93528  deg
     ZDOT =      -5690.759714                 TA   =           33.95824
                                              MA   =           33.85966
                                              Ha   =            220.721  n.mi
                                              Hp   =            214.193
 
              M50 Cartesian                         J2K Cartesian  
    -----------------------------------       --------------------------------
     X    =       14615923.53                 X    =         4392516.83
     Y    =       15862380.44  feet           Y    =         4884322.77  meter
     Z    =        5417502.04                 Z    =         1672743.32
     XDOT =      -8733.023705                 XDOT =       -2683.247940
     YDOT =      14453.694870  feet/sec       YDOT =        4375.599508  meter/sec
     ZDOT =     -18670.471503                 ZDOT =       -5703.742617
 
              TDR Cartesian                         TDR Cartesian  
    -----------------------------------       --------------------------------
     X    =        9696126.06                 X    =         2955379.22
     Y    =       19241005.62  feet           Y    =         5864658.51  meter
     Z    =        5509855.22                 Z    =         1679403.87
     XDOT =     -10828.210040                 XDOT =       -3300.438420
     YDOT =      10844.492445  feet/sec       YDOT =        3305.401297  meter/sec
     ZDOT =     -18727.491682                 ZDOT =       -5708.139465
  
  
    The mean element set is posted at the UTC for which position is
    just north of the next ascending node relative to the above
    vector time
 
 
    TWO LINE MEAN ELEMENT SET
  
    ISS
    1 25544U 98067A   16060.55282954  .00016717  00000-0  10270-3 0  9123
    2 25544  51.6379 239.7681 0003333 185.7696 174.3419 15.54435708 28082
  
  
    Satellite: ISS
    Catalog Number: 25544
    Epoch time:      16060.55282954   =   yrday.fracday
    Element set:     912
    Inclination:       51.6379  deg
    RA of node:       239.7681  deg
    Eccentricity:     .0003333     
    Arg of perigee:   185.7696  deg
    Mean anomaly:     174.3419  deg
    Mean motion:   15.54435708  rev/day
    Decay rate:    1.67170E-04  rev/day^2
    Epoch rev:            2808
    Checksum:              339
 
 
    Coasting Arc #14 (Orbit 2823)
    ---------------------------------------
 
    Vector Time (GMT): 2016/061/12:25:00.000
    Vector Time (MET): N/A
    Weight (LBS)     : 906643.5
 
              M50 Cartesian                         M50 Keplerian  
    -----------------------------------       --------------------------------
     X    =       -3915995.99                 A    =         6788439.83  meter
     Y    =       -5539566.98  meter          E    =           .0009884
     Z    =         118633.49                 I    =           51.35712
     XDOT =       3974.146263                 Wp   =           60.25076
     YDOT =      -2673.226179  meter/sec      RA   =          233.94188  deg
     ZDOT =       5986.446042                 TA   =          301.03198
                                              MA   =          301.12899
                                              Ha   =            220.818  n.mi
                                              Hp   =            214.220
 
              M50 Cartesian                         J2K Cartesian  
    -----------------------------------       --------------------------------
     X    =      -12847755.87                 X    =        -3854336.40
     Y    =      -18174432.35  feet           Y    =        -5583013.48  meter
     Z    =         389217.50                 Z    =           99760.99
     XDOT =      13038.537607                 XDOT =        3974.664197
     YDOT =      -8770.427097  feet/sec       YDOT =       -2628.781169  meter/sec
     ZDOT =      19640.571003                 ZDOT =        6005.752827
 
              TDR Cartesian                         TDR Cartesian  
    -----------------------------------       --------------------------------
     X    =       -7759973.33                 X    =        -2365239.87
     Y    =      -20861784.94  feet           Y    =        -6358672.05  meter
     Z    =         308310.30                 Z    =           93972.98
     XDOT =      13207.597121                 XDOT =        4025.675602
     YDOT =      -4598.614482  feet/sec       YDOT =       -1401.657694  meter/sec
     ZDOT =      19724.721355                 ZDOT =        6012.095069
  
  
    The mean element set is posted at the UTC for which position is
    just north of the next ascending node relative to the above
    vector time
 
 
    TWO LINE MEAN ELEMENT SET
  
    ISS
    1 25544U 98067A   16061.58147258  .00016717  00000-0  10270-3 0  9135
    2 25544  51.6380 234.6369 0003544 185.8326 174.2787 15.54432843 28248
  
  
    Satellite: ISS
    Catalog Number: 25544
    Epoch time:      16061.58147258   =   yrday.fracday
    Element set:     913
    Inclination:       51.6380  deg
    RA of node:       234.6369  deg
    Eccentricity:     .0003544     
    Arg of perigee:   185.8326  deg
    Mean anomaly:     174.2787  deg
    Mean motion:   15.54432843  rev/day
    Decay rate:    1.67170E-04  rev/day^2
    Epoch rev:            2824
    Checksum:              327
 
 
    Coasting Arc #15 (Orbit 2838)
    ---------------------------------------
 
    Vector Time (GMT): 2016/062/12:25:00.000
    Vector Time (MET): N/A
    Weight (LBS)     : 906643.5
 
              M50 Cartesian                         M50 Keplerian  
    -----------------------------------       --------------------------------
     X    =        2997955.68                 A    =         6786790.18  meter
     Y    =        5774046.76  meter          E    =           .0009572
     Z    =       -1915985.10                 I    =           51.37163
     XDOT =      -5184.937782                 Wp   =          156.00895
     YDOT =        844.271284  meter/sec      RA   =          228.94985  deg
     ZDOT =      -5587.021714                 TA   =           45.19076
                                              MA   =           45.11298
                                              Ha   =            220.650  n.mi
                                              Hp   =            214.236
 
